Telephone Number,Caller Name,Address Line 1,Address Line 2,City,State,Zip (optional plus four),Country,,,Comments (Internal Only),Account-ID,Order-ID,Function
2487263027,RCS Admin,52585 Dequindre Rd.,Office 2F West,Rochester Hills,MI,48307,US,,,James Martin,,,
2487263029,RCS Admin,52585 Dequindre Rd.,Office 2F West,Rochester Hills,MI,48307,US,,,Karen Fallone,,,
2487263047,RCS Admin,52585 Dequindre Rd.,,Rochester Hills,MI,48307,US,,,--,,,
2487263060,RCS Admin,52585 Dequindre Rd.,Office 2F West,Rochester Hills,MI,48307,US,,,Anne Evans,,,
2487263080,RCS Admin,52585 Dequindre Rd.,Office 2F West,Rochester Hills,MI,48307,US,,,Josh Gamble,,,
2487263083,RCS Admin,52585 Dequindre Rd.,Office 2F West,Rochester Hills,MI,48307,US,,,Kayla Bates,,,
2487263090,RCS Admin,52585 Dequindre Rd.,,Rochester Hills,MI,48307,US,,,--,,,
2487263108,RCS Admin,52585 Dequindre Rd.,,Rochester Hills,MI,48307,US,,,--,,,
2487263170,RCS Admin,52585 Dequindre Rd.,Office 3F East,Rochester Hills,MI,48307,US,,,Jonna Carnes,,,
2487263173,RCS Admin,52585 Dequindre Rd.,Office 1F West,Rochester Hills,MI,48307,US,,,Consultant Curriculum,,,
2487263174,RCS Admin,52585 Dequindre Rd.,Office 1F West,Rochester Hills,MI,48307,US,,,Think Tank Curriculum,,,
2487264616,Facility Ops,1402 W. Hamlin Rd.,Office West,Rochester Hills,MI,48309,US,,,William Lalonde,,,
2487264627,Facility Ops,1402 W. Hamlin Rd.,Key Room,Rochester Hills,MI,48309,US,,,Key Room,,,
2487264778,Reuther MS,1430 E. Auburn Rd,Main Office,Rochester Hills,MI,48307,US,,,AP Office Reuther,,,
2487265402,Rochester HS,1361 Walton Blvd.,Main Office,Rochester Hills,MI,48309,US,,,Jennifer Vanhowe,,,
2487265702,StoneyCreek HS,6755 Sheldon Rd.,Main Office,Rochester Hills,MI,48306,US,,,Melissa Burcham,,,
2487265847,StoneyCreek HS,6755 Sheldon Rd.,Room A216,Rochester Hills,MI,48306,US,,,RM A216 SCHS,,,
2487265848,StoneyCreek HS,6755 Sheldon Rd.,Room A216,Rochester Hills,MI,48306,US,,,RM A216 SCHS,,,
2487265853,StoneyCreek HS,6755 Sheldon Rd.,Room A216,Rochester Hills,MI,48306,US,,,RM A216 SCHS,,,
2487265890,StoneyCreek HS,6755 Sheldon Rd.,Room A216,Rochester Hills,MI,48306,US,,,RM A216 SCHS,,,
2487265892,StoneyCreek HS,6755 Sheldon Rd.,Room A216,Rochester Hills,MI,48306,US,,,RM A216 SCHS,,,
2487265893,StoneyCreek HS,6755 Sheldon Rd.,Room A216,Rochester Hills,MI,48306,US,,,RM A216 SCHS,,,
2487265894,StoneyCreek HS,6755 Sheldon Rd.,Room A216,Rochester Hills,MI,48306,US,,,RM A216 SCHS,,,
2487266033,RCS Admin,52585 Dequindre Rd.,,Rochester Hills,MI,48307,US,,,Savita Allichandi,,,
2487266073,RCS Admin,52585 Dequindre Rd.,,Rochester Hills,MI,48307,US,,,Delta Kelly TA,,,
2487266378,RCS Admin,52585 Dequindre Rd.,,Rochester Hills,MI,48307,US,,,Manjula Nagouda,,,
2487266380,RCS Admin,52585 Dequindre Rd.,,Rochester Hills,MI,48307,US,,,Nathan Majask,,,